SUOMI NPP               
1 37849U 11061A   26192.94013898  .00000023  00000+0  32080-4 0  9993
2 37849  98.7956 133.6478 0000617 235.2698 124.8420 14.19522242761959
YAOGAN-12               
1 37875U 11066B   26193.04038016  .00005714  00000+0  21875-3 0  9999
2 37875  97.1134 230.4419 0010882 132.4149 227.8013 15.26873293815837
BEIDOU-2 M4             
1 38251U 12018B   26191.21022507 -.00000069  00000+0  00000+0 0  9993
2 38251  55.6367 303.3120 0012086 272.7348  87.1429  1.86229687 96370
ARIRANG-3 (KOMPSAT-3)   
1 38338U 12025B   26192.94125457  .00000214  00000+0  51617-4 0  9992
2 38338  98.1183 149.9761 0006401  47.3930 312.7811 14.62227433754969
METOP-B                 
1 38771U 12049A   26192.89681976  .00000045  00000+0  40355-4 0  9995
2 38771  98.6491 243.9014 0001053 276.0766  84.0291 14.21445784716773
SJ-9A                   
1 38860U 12056A   26192.88519146  .00000567  00000+0  71331-4 0  9997
2 38860  97.6726 163.9463 0025679 172.5543 187.6059 14.85524712703254
COSMOS 2484 (RODNIK-S 6)
1 39059U 13001C   26192.93806352  .00000142  00000+0  95171-3 0  9999
2 39059  82.5002 206.5042 0025800 342.8609  17.1597 12.42940640611630
SARAL                   
1 39086U 13009A   26192.90036897  .00000056  00000+0  36460-4 0  9994
2 39086  98.5554  19.1550 0001503 175.1149 185.0050 14.32895281699143
STRAND-1                
1 39090U 13009E   26192.49314170  .00000156  00000+0  66857-4 0  9990
2 39090  98.3931  12.1305 0009209 151.3099 208.8597 14.37177517700555
BRITE-AUSTRIA           
1 39091U 13009F   26192.72551399  .00000091  00000+0  45385-4 0  9994
2 39091  98.4006  11.5552 0010564 160.5615 199.5976 14.36551598700572
GAOFEN-1                
1 39150U 13018A   26192.93374862 -.00000212  00000+0 -23130-4 0  9992
2 39150  97.9090 264.4974 0016784 181.5996 178.5164 14.76514892711890
NEE-01 PEGASO           
1 39151U 13018B   26190.63966526  .00001233  00000+0  12199-3 0  9996
2 39151  98.1250 335.5366 0013875  90.6498 269.6310 14.93776228714050
PROBA-V                 
1 39159U 13021A   26192.85933208  .00000043  00000+0  36884-4 0  9991
2 39159  98.3603 170.2499 0005344  67.7410 292.4336 14.23603107684623
ARIRANG-5 (KOMPSAT-5)   
1 39227U 13042A   26192.97363001  .00001070  00000+0  80695-4 0  9991
2 39227  97.6217  19.3267 0005595  66.9000 293.2816 15.04523462707580
GONETS-M 5              
1 39249U 13048A   26192.98843682 -.00000090  00000+0 -72006-3 0  9999
2 39249  82.4844 327.9199 0017236 156.4139 203.7734 12.42892282581962
GONETS-M 7              
1 39251U 13048C   26192.95094331  .00000065  00000+0  39802-3 0  9995
2 39251  82.4910 330.8785 0018013 157.7359 202.4507 12.42915670581911
FENGYUN 3C              
1 39260U 13052A   26192.92083469  .00000029  00000+0  36021-4 0  9998
2 39260  98.4995 165.6620 0013813 315.9906  44.0169 14.15760361662069
CASSIOPE                
1 39265U 13055A   26192.94226198  .00023130 -54058-6  24790-3 0  9993
2 39265  80.9127  36.6058 0283683 338.9241  20.0481 15.27274481671440
APRIZESAT 7             
1 39416U 13066A   26192.84096827  .00000534  00000+0  58178-4 0  9997
2 39416  97.7720 145.7086 0037009 128.0579 232.3988 14.91614934684903
ZACUBE-1 (TSHEPISOSAT)  
1 39417U 13066B   26192.93545886  .00001437  00000+0  11431-3 0  9995
2 39417  97.8011 155.3951 0043834 165.6614 194.5866 15.01320163684449
APRIZESAT 8             
1 39425U 13066K   26192.82605686  .00000423  00000+0  51745-4 0  9994
2 39425  97.8228 139.9521 0045218 203.0906 156.8279 14.87693219683332
