OBJECT_NAME,OBJECT_ID,EPOCH,MEAN_MOTION,ECCENTRICITY,INCLINATION,RA_OF_ASC_NODE,ARG_OF_PERICENTER,MEAN_ANOMALY,EPHEMERIS_TYPE,CLASSIFICATION_TYPE,NORAD_CAT_ID,ELEMENT_SET_NO,REV_AT_EPOCH,BSTAR,MEAN_MOTION_DOT,MEAN_MOTION_DDOT
SUOMI NPP,2011-061A,2026-07-11T22:33:48.007872,14.19522242,.0000617,98.7956,133.6478,235.2698,124.8420,0,U,37849,999,76195,.32079652E-4,.23E-6,0
YAOGAN-12,2011-066B,2026-07-12T00:58:08.845824,15.26873293,.0010882,97.1134,230.4419,132.4149,227.8013,0,U,37875,999,81583,.21875E-3,.5714E-4,0
BEIDOU-2 M4,2012-018B,2026-07-10T05:02:43.446048,1.86229687,.0012086,55.6367,303.3120,272.7348,87.1429,0,U,38251,999,9637,0,-.69E-6,0
ARIRANG-3 (KOMPSAT-3),2012-025B,2026-07-11T22:35:24.394848,14.62227433,.00064016,98.1183,149.9761,47.3930,312.7811,0,U,38338,999,75496,.51616944E-4,.214E-5,0
METOP-B,2012-049A,2026-07-11T21:31:25.227264,14.21445784,.00010535,98.6491,243.9014,276.0766,84.0291,0,U,38771,999,71677,.40355222E-4,.45E-6,0
SJ-9A,2012-056A,2026-07-11T21:14:40.542144,14.85524712,.00256796,97.6726,163.9463,172.5543,187.6059,0,U,38860,999,70325,.71330539E-4,.567E-5,0
COSMOS 2484 (RODNIK-S 6),2013-001C,2026-07-11T22:30:48.688128,12.42940640,.00258004,82.5002,206.5042,342.8609,17.1597,0,U,39059,999,61163,.95170781E-3,.142E-5,0
SARAL,2013-009A,2026-07-11T21:36:31.879008,14.32895281,.00015032,98.5554,19.1550,175.1149,185.0050,0,U,39086,999,69914,.36459819E-4,.56E-6,0
STRAND-1,2013-009E,2026-07-11T11:50:07.442880,14.37177517,.00092096,98.3931,12.1305,151.3099,208.8597,0,U,39090,999,70055,.66856744E-4,.156E-5,0
BRITE-AUSTRIA,2013-009F,2026-07-11T17:24:44.408736,14.36551598,.00105646,98.4006,11.5552,160.5615,199.5976,0,U,39091,999,70057,.45384828E-4,.91E-6,0
GAOFEN-1,2013-018A,2026-07-11T22:24:35.880768,14.76514892,.00167844,97.9090,264.4974,181.5996,178.5164,0,U,39150,999,71189,-.23129784E-4,-.212E-5,0
NEE-01 PEGASO,2013-018B,2026-07-09T15:21:07.078464,14.93776228,.00138751,98.1250,335.5366,90.6498,269.6310,0,U,39151,999,71405,.1219934E-3,.1233E-4,0
PROBA-V,2013-021A,2026-07-11T20:37:26.291712,14.23603107,.00053448,98.3603,170.2499,67.7410,292.4336,0,U,39159,999,68462,.36883502E-4,.43E-6,0
ARIRANG-5 (KOMPSAT-5),2013-042A,2026-07-11T23:22:01.632864,15.04523462,.00055959,97.6217,19.3267,66.9000,293.2816,0,U,39227,999,70758,.80694708E-4,.107E-4,0
GONETS-M 5,2013-048A,2026-07-11T23:43:20.941248,12.42892282,.00172363,82.4844,327.9199,156.4139,203.7734,0,U,39249,999,58196,-.72006004E-3,-.9E-6,0
GONETS-M 7,2013-048C,2026-07-11T22:49:21.501984,12.42915670,.00180137,82.4910,330.8785,157.7359,202.4507,0,U,39251,999,58191,.39802398E-3,.65E-6,0
FENGYUN 3C,2013-052A,2026-07-11T22:06:00.117216,14.15760361,.00138137,98.4995,165.6620,315.9906,44.0169,0,U,39260,999,66206,.3602107E-4,.29E-6,0
CASSIOPE,2013-055A,2026-07-11T22:36:51.435072,15.27274481,.02836832,80.9127,36.6058,338.9241,20.0481,0,U,39265,999,67144,.24789884E-3,.2313E-3,-.540578E-6
APRIZESAT 7,2013-066A,2026-07-11T20:10:59.658528,14.91614934,.00370098,97.7720,145.7086,128.0579,232.3988,0,U,39416,999,68490,.58177685E-4,.534E-5,0
ZACUBE-1 (TSHEPISOSAT),2013-066B,2026-07-11T22:27:03.645504,15.01320163,.00438342,97.8011,155.3951,165.6614,194.5866,0,U,39417,999,68444,.11431021E-3,.1437E-4,0
APRIZESAT 8,2013-066K,2026-07-11T19:49:31.312704,14.87693219,.00452185,97.8228,139.9521,203.0906,156.8279,0,U,39425,999,68333,.51745482E-4,.423E-5,0
